CUPID                   
1 49264U 21088E   26068.66993977  .00009454  00000+0  38662-3 0  9991
2 49264  97.3985 131.0756 0013746  59.9938 300.2662 15.24473777245013
STARLINK-31110          
1 58679U 23211N   26068.40918754  .00000109  00000+0  13471-4 0  9993
2 58679  42.9986  86.6941 0001453 282.2716  77.7973 15.27582049122424
